[{"OBJECT_NAME":"STARLINK-34706","OBJECT_ID":"2025-152D","EPOCH":"2026-03-09T13:21:56.917728","MEAN_MOTION":15.0566891,"ECCENTRICITY":0.00016781,"INCLINATION":97.6018,"RA_OF_ASC_NODE":285.3179,"ARG_OF_PERICENTER":78.6066,"MEAN_ANOMALY":281.5349,"EPHEMERIS_TYPE":0,"CLASSIFICATION_TYPE":"U","NORAD_CAT_ID":64845,"ELEMENT_SET_NO":999,"REV_AT_EPOCH":3539,"BSTAR":-2.7094144e-5,"MEAN_MOTION_DOT":-4.52e-6,"MEAN_MOTION_DDOT":0},{"OBJECT_NAME":"TITAN 4B R\/B","OBJECT_ID":"2000-047B","EPOCH":"2026-03-09T21:29:16.286496","MEAN_MOTION":15.09565128,"ECCENTRICITY":0.00386241,"INCLINATION":67.9901,"RA_OF_ASC_NODE":39.932,"ARG_OF_PERICENTER":35.1583,"MEAN_ANOMALY":325.2103,"EPHEMERIS_TYPE":0,"CLASSIFICATION_TYPE":"U","NORAD_CAT_ID":26474,"ELEMENT_SET_NO":999,"REV_AT_EPOCH":39294,"BSTAR":0.00034805691,"MEAN_MOTION_DOT":5.567e-5,"MEAN_MOTION_DDOT":0}]
